ORBCOMM FM27            
1 25481U 98053G   23285.72077900  .00002798  00000+0  10282-2 0  9997
2 25481  45.0055 287.9901 0002530 270.1750  89.8807 14.34712053309472
ORBCOMM FM32            
1 25982U 99065C   23285.79731815  .00002261  00000+0  86236-3 0  9994
2 25982  45.0143 112.1493 0005533 201.7551 158.3061 14.33411071246509
ORBCOMM FM24 [-]        
1 25478U 98053D   23286.05077350  .00002779  00000+0  10207-2 0  9995
2 25478  45.0080 287.9458 0002023 309.0426  51.0241 14.34757045309576
ORBCOMM FM25 [-]        
1 25479U 98053E   23285.73606531  .00002718  00000+0  99997-3 0  9996
2 25479  45.0074 287.6628 0002515  17.5558 342.5376 14.34737172309542
ORBCOMM FM26 [-]        
1 25480U 98053F   23285.67076303  .00002382  00000+0  88986-3 0  9992
2 25480  45.0066 281.3084 0003714  65.1924 294.9309 14.34311250309484
ORBCOMM FM28 [-]        
1 25482U 98053H   23286.12407405  .00002619  00000+0  95609-3 0  9999
2 25482  45.0056 225.3067 0002352  85.7924 274.3192 14.35210139310365
ORBCOMM FM30 [-]        
1 25980U 99065A   23285.79199387  .00002284  00000+0  85299-3 0  9997
2 25980  45.0299 106.0558 0006408 177.2158 182.8725 14.34436793246299
ORBCOMM FM31 [-]        
1 25981U 99065B   23285.55076447  .00002201  00000+0  82368-3 0  9996
2 25981  45.0216 101.0581 0003541 196.0844 163.9891 14.34465040245814
